JINJUSat 1B
1 63210U 25052A   26193.65293932  .00010978  00000-0  33281-3 0  9991
2 63210  97.3981  90.4527 0003529  34.8372 325.3101 15.34300062 74004
NUSHSAT 1
1 63211U 25052B   26193.65404062  .00013922  00000-0  38693-3 0  9994
2 63211  97.3954  91.1109 0003461  45.1429 315.0096 15.36974952 74053
TEVEL2-4
1 63213U 25052D   26193.66997237  .00012793  00000-0  37280-3 0  9994
2 63213  97.3881  90.1160 0003752  57.2753 302.8852 15.35507888 74027
TEVEL2-5
1 63214U 25052E   26193.17203627  .00010707  00000-0  31447-3 0  9996
2 63214  97.3875  89.5570 0003832  59.0491 301.1129 15.35309356 73945
TEVEL2-6
1 63215U 25052F   26193.70635361  .00012019  00000-0  35290-3 0  9998
2 63215  97.3879  90.0772 0003782  60.8657 299.2965 15.35286777 74025
TEVEL2-1
1 63217U 25052H   26193.67932411  .00011444  00000-0  34224-3 0  9999
2 63217  97.3853  89.6437 0004433  65.2904 294.8800 15.34718554 74008
TEVEL2-3
1 63218U 25052J   26193.67298572  .00011907  00000-0  35527-3 0  9994
2 63218  97.3855  89.6625 0004208  66.7009 293.4677 15.34780805 74007
TEVEL2-2
1 63219U 25052K   26193.67946926  .00011375  00000-0  34007-3 0  9999
2 63219  97.3850  89.6469 0004492  65.9197 294.2516 15.34729067 74007
TEVEL2-9
1 63237U 25052AD  26193.69037848  .00010164  00000-0  32417-3 0  9993
2 63237  97.3920  88.9768 0007854  63.1836 297.0208 15.32681322 73933
TEVEL2-7
1 63238U 25052AE  26193.67104634  .00010765  00000-0  34652-3 0  9990
2 63238  97.3915  88.8620 0007933  63.7828 296.4229 15.32366834 73922
TEVEL2-8
1 63239U 25052AF  26193.15713210  .00009130  00000-0  29457-3 0  9991
2 63239  97.3920  88.3251 0008083  66.3395 293.8694 15.32340401 73849
SPIRONE
1 66657U 25274H   26193.77959823  .00000879  00000-0  88562-4 0  9998
2 66657  97.7475 122.7062 0010526 292.8696  67.1412 14.93647921 34045
K-HERO
1 66660U 25274L   26193.77711389  .00000788  00000-0  79104-4 0  9996
2 66660  97.7483 122.8837 0012445 297.0818  62.9132 14.94057029 34052
SNUGLITE-III DURI
1 66661U 25274M   26193.76430064  .00000957  00000-0  94801-4 0  9993
2 66661  97.7481 122.8917 0013061 298.0588  61.9311 14.94086848 34059
SAKHACUBE-CHOLBON
1 67290U 25313AU  26193.74854116  .00006478  00000-0  25966-3 0  9991
2 67290  97.3933 268.4700 0007632 261.2733  98.7641 15.25334961 29879
RS95S (QMR-KWT-2)
1 67291U 25313AV  26193.18737020  .00007510  00000-0  28658-3 0  9993
2 67291  97.3929 268.1464 0007354 259.7306 100.3104 15.26926449 29804
Ten-Koh2
1 68261U 25241B   26193.39253546  .00002321  00000-0  10777-3 0  9998
2 68261  51.6596 199.6513 0004591 220.5729 139.4907 15.24156389 18755
JACK-002
1 68417U 26067B   26193.84335124  .00004163  00000-0  19818-3 0  9992
2 68417  97.4576 152.1239 0002858 138.4259 221.7193 15.19697736 15841
DISCO 2
1 68431U 26067R   26193.80342855  .00004809  00000-0  23008-3 0  9996
2 68431  97.4610 152.0736 0000304 168.9826 191.1416 15.19450422 15835
HADES-SA (SpinnyONE)
1 68446U 26067AG  26193.31193013  .00010582  00000-0  49507-3 0  9995
2 68446  97.4404 151.2480 0006444  12.8868 347.2531 15.19918321 15742
PARUS-6U1
1 68456U 26067AS  26193.77055225  .00003721  00000-0  18747-3 0  9997
2 68456  97.4559 151.7464 0004971 359.0949   1.0275 15.17779396 15813
SAL-E
1 68458U 26067AU  26193.82702047  .00005310  00000-0  26347-3 0  9997
2 68458  97.4488 151.7247 0005605   7.4777 352.6539 15.18120194 15829
FSI-SAT 2
1 68792U 26088A   26193.85036109  .00001876  00000-0  12902-3 0  9998
2 68792  97.5087 342.4721 0014739  25.6680 334.5277 15.07029044 12156
OrigamiSat 2
1 68795U 26088D   26193.22741541  .00007141  00000-0  45099-3 0  9999
2 68795  97.5089 342.0801 0014382 356.9148   3.1989 15.09283317 12076
ARICA 2
1 68796U 26088E   26193.30115149  .00002663  00000-0  17381-3 0  9995
2 68796  97.5083 342.1208 0015302 357.7551   2.3606 15.08615935 12085
WASEDA-SAT-ZERO-II
1 68797U 26088F   26193.35894328  .00003622  00000-0  23308-3 0  9996
2 68797  97.5080 342.1949 0015010 356.9413   3.1721 15.08911907 12095
MANGARO-II-Piscus
1 68798U 26088G   26193.81204446  .00002111  00000-0  13718-3 0  9990
2 68798  97.5096 342.6740 0018698 358.3139   1.8023 15.08959352 12167
IO-86
1 40931U          25360.30710720  .00000000  00000-0  12800-3 0    00
2 40931   6.0006 332.5373 0012733 338.8432   8.1437 14.79075515    01
LILIUM-4
1 71922C 26067AC  26089.50133053 -.00014632  00000 0 -74472-3 0    04
2 71922  97.4497  49.1617 0004341   5.9603 355.7042 15.16896692    16
